IRIDIUM 155             
1 43573U 18061E   23264.67706283  .00000396  00000+0  13439-3 0  9994
2 43573  86.3930 114.4503 0002253  81.3628 278.7823 14.34221695270105
IRIDIUM 154             
1 43574U 18061F   23264.51848767  .00000388  00000+0  13164-3 0  9998
2 43574  86.3935 114.6016 0002131  93.7968 266.3472 14.34222863270124
IRIDIUM 163             
1 43575U 18061G   23264.70876804  .00000386  00000+0  13075-3 0  9992
2 43575  86.3932 114.4684 0002041  89.0548 271.0882 14.34222813270126
IRIDIUM 156             
1 43576U 18061H   23264.12526007  .00000010  00000+0 -34218-5 0  9995
2 43576  86.3931 114.7182 0002011  81.1509 278.9914 14.34218860270038
IRIDIUM 164             
1 43577U 18061J   23264.52483639  .00000394  00000+0  13370-3 0  9991
2 43577  86.3934 114.5761 0001837  86.4789 273.6617 14.34221315270138
IRIDIUM 159             
1 43578U 18061K   23264.56289601  .00000388  00000+0  13161-3 0  9990
2 43578  86.3931 114.5180 0002151  87.1724 272.9718 14.34221358270106
IRIDIUM 180             
1 43922U 19002A   23264.49262370  .00000520  00000+0  17863-3 0  9996
2 43922  86.3958  51.3758 0001964  97.6554 262.4864 14.34215661245709
IRIDIUM 176             
1 43923U 19002B   23264.69385996  .00001894  00000+0  29640-3 0  9990
2 43923  86.6088  51.3259 0002239  89.8150 270.3324 14.72262487252194
IRIDIUM 168             
1 43924U 19002C   23264.48628383  .00000064  00000+0  15722-4 0  9993
2 43924  86.3961  51.4274 0002010  94.9810 265.1615 14.34217018245686
IRIDIUM 173             
1 43925U 19002D   23264.68290982  .00000178  00000+0  56344-4 0  9997
2 43925  86.3957  51.2750 0002120  93.6858 266.4580 14.34218325245709
IRIDIUM 169             
1 43926U 19002E   23264.52712773  .00000209  00000+0  61749-4 0  9998
2 43926  86.4168  82.9740 0004857  57.4696 302.6970 14.38605676246500
IRIDIUM 172             
1 43927U 19002F   23264.46725510  .00000406  00000+0  13805-3 0  9993
2 43927  86.3958  51.3704 0002050  95.8352 264.3077 14.34216406245679
IRIDIUM 175             
1 43928U 19002G   23264.41578791  .00002044  00000+0  32026-3 0  9992
2 43928  86.1525  39.8340 0002220  92.2499 267.8971 14.72247124252141
IRIDIUM 171             
1 43929U 19002H   23264.51799506  .00000060  00000+0  14403-4 0  9999
2 43929  86.3966  51.5446 0001971  95.9934 264.1487 14.34216230245671
IRIDIUM 170             
1 43930U 19002J   23264.70003020  .00001864  00000+0  29167-3 0  9996
2 43930  86.6089  51.3282 0002260  87.8372 272.3104 14.72258306252202
IRIDIUM 167             
1 43931U 19002K   23263.95350477  .00000496  00000+0  16996-3 0  9990
2 43931  86.3954  51.5985 0001844  92.7813 267.3593 14.34217477245597
IRIDIUM 181             
1 56726U 23068S   23264.53501667  .00000209  00000+0  55977-4 0  9992
2 56726  86.8569  92.0432 0001167  56.6968 303.4345 14.43573512 18236
IRIDIUM 177             
1 56727U 23068T   23264.76519638  .00000838  00000+0  10678-3 0  9991
2 56727  86.1926  83.2690 0002197  97.7246 262.4224 14.80226636 18529
IRIDIUM 174             
1 56728U 23068U   23264.75976314  .00000842  00000+0  10732-3 0  9995
2 56728  86.1933  83.3535 0002400  88.6754 271.4742 14.80226487 18526
IRIDIUM 178             
1 56729U 23068V   23264.75405595  .00000777  00000+0  98840-4 0  9998
2 56729  86.5727  88.0569 0002528  93.1412 267.0098 14.80216788 18522
IRIDIUM 179             
1 56730U 23068W   23264.54585696  .00000771  00000+0  98087-4 0  9995
2 56730  86.6735  88.8858 0002447  94.9615 265.1886 14.80216572 18498
